ORBCOMM FM05            
1 25117U 97084F   25202.96878952  .00000849  00000+0  27639-3 0  9999
2 25117  45.0134 201.0443 0003093 333.6532  26.4162 14.46016322445642
ORBCOMM FM06            
1 25118U 97084G   25202.71395764  .00000968  00000+0  30858-3 0  9997
2 25118  45.0127 201.9686 0002661 313.8740 216.7789 14.46150611446521
ORBCOMM FM07            
1 25119U 97084H   25202.97098947  .00000906  00000+0  29148-3 0  9991
2 25119  45.0122 201.5017 0003825 340.6599  19.4107 14.46149230446554
ORBCOMM FM03            
1 25158U 98007B   25202.92125905  .00000757  00000+0  31117-3 0  9993
2 25158 107.9667 206.9574 0045101 190.3712 169.6501 14.34564066429020
ORBCOMM FM04            
1 25159U 98007C   25202.89949029  .00000663  00000+0  27745-3 0  9999
2 25159 107.9657 210.1584 0040842 188.0492 171.9997 14.34809394429205
ORBCOMM FM17            
1 25413U 98046A   25202.16089821  .00000558  00000+0  24261-3 0  9993
2 25413  44.9945  97.2608 0003874  15.0352 345.0610 14.35139955408053
ORBCOMM FM18            
1 25414U 98046B   25202.79479003  .00000818  00000+0  31086-3 0  9990
2 25414  44.9942  10.7400 0005128 107.5189 252.6220 14.38621340409238
ORBCOMM FM19            
1 25415U 98046C   25202.84346314  .00000828  00000+0  31531-3 0  9991
2 25415  44.9954  12.5622 0003868 105.0856  39.0908 14.38430003409190
